METHANESAT              
1 59101U 24043D   26095.31596262  .00005122  00000+0  44094-3 0  9998
2 59101  97.8341 226.0635 0008593 249.1355 110.8947 14.97788139113741
GOSAT-GW (IBUKI GW)     
1 64694U 25141A   26095.30421243  .00001379  00000+0  25154-3 0  9992
2 64694  98.0531  33.8230 0001408  84.1474 275.9891 14.67548833 41158
GHGSAT-C1               
1 46278U 20061G   26095.25766800  .00042058  00000+0  40352-3 0  9997
2 46278  97.2122 178.2608 0000092  35.6347 324.4920 15.66523132312041
GHGSAT-C12              
1 64529U 25135B   26095.30882246  .00005378  00000+0  25412-3 0  9996
2 64529  97.4654 210.8255 0006405  74.7919 285.4024 15.19813800 43758
GHGSAT-C13              
1 64548U 25135W   26095.28099322  .00005133  00000+0  23815-3 0  9993
2 64548  97.4682 211.2589 0001985  57.0815 303.0611 15.20485195 43777
GHGSAT-C2               
1 47509U 21006DA  26095.11950340  .00008378  00000+0  23392-3 0  9996
2 47509  97.2231 143.6419 0006875  77.8717 282.3297 15.36942763288627
GHGSAT-C3               
1 52737U 22057F   26095.30517185  .00009317  00000+0  29075-3 0  9997
2 52737  97.6488 238.3289 0006453  32.9494 327.2149 15.33428169214368
GHGSAT-C4               
1 52746U 22057Q   26095.25975068  .00009824  00000+0  30657-3 0  9990
2 52746  97.6413 237.1874 0006344  18.8577 341.2899 15.33411895214363
GHGSAT-C5               
1 52744U 22057N   26095.27777815  .00009911  00000+0  30927-3 0  9997
2 52744  97.6579 239.7899 0007226  27.0305 333.1312 15.33403630214368
GHGSAT-C6               
1 56204U 23054AC  26095.26311483  .00019337  00000+0  33567-3 0  9990
2 56204  97.3098   3.9632 0004867 320.7154  39.3745 15.50879286167146
GHGSAT-C7               
1 56209U 23054AH  26095.26812392  .00015823  00000+0  30016-3 0  9992
2 56209  97.3053   2.7821 0005922 310.9844  49.0894 15.48381437167101
GHGSAT-C8               
1 56186U 23054J   26095.29857971  .00019636  00000+0  34057-3 0  9996
2 56186  97.3048   3.3739 0004204   2.3013 357.8258 15.50903869167135
SENTINEL-5P             
1 42969U 17064A   26094.82562103  .00000125  00000+0  80193-4 0  9998
2 42969  98.7919  37.4855 0001248  89.0883 271.0436 14.19506053439157
ENMAP                   
1 52159U 22033C   26095.23845962  .00000592  00000+0  95503-4 0  9994
2 52159  97.9770 178.5225 0001539 104.4705 255.6675 14.75001562215906
PRISMA                  
1 44072U 19015A   26095.23643181  .00002085  00000+0  25879-3 0  9991
2 44072  97.8676 171.0836 0001410  88.5659 271.5716 14.83689247381233
SENTINEL-2A             
1 40697U 15028A   26095.27767721  .00000076  00000+0  45642-4 0  9990
2 40697  98.5644 171.1797 0001325  92.8673 267.2662 14.30817223563302
SENTINEL-2B             
1 42063U 17013A   26095.27043465  .00000144  00000+0  71560-4 0  9991
2 42063  98.5670 171.0829 0001195  94.9322 265.1998 14.30817942474212
SENTINEL-2C             
1 60989U 24157A   26095.16554584  .00000189  00000+0  88606-4 0  9990
2 60989  98.5649 170.9969 0001239 114.7083 245.4229 14.30824598 82546
LANDSAT 8               
1 39084U 13008A   26095.23530985  .00000524  00000+0  12640-3 0  9999
2 39084  98.1873 166.5189 0001212  90.7572 269.3765 14.57111180687271
LANDSAT 9               
1 49260U 21088A   26095.20115695  .00000580  00000+0  13865-3 0  9999
2 49260  98.1894 166.5529 0001182  98.0172 262.1161 14.57125766240374
TANAGER-1               
1 60507U 24149AR  26095.20764637  .00021148  00000+0  46762-3 0  9998
2 60507  97.3722 188.9473 0007230 198.0094 162.0899 15.43824932 91773
